[{"OBJECT_NAME":"STARLINK-36094","OBJECT_ID":"2025-281D","EPOCH":"2026-03-09T03:32:26.075328","MEAN_MOTION":15.27569557,"ECCENTRICITY":0.00015493,"INCLINATION":43.0032,"RA_OF_ASC_NODE":346.4497,"ARG_OF_PERICENTER":260.6256,"MEAN_ANOMALY":99.442,"EPHEMERIS_TYPE":0,"CLASSIFICATION_TYPE":"U","NORAD_CAT_ID":66851,"ELEMENT_SET_NO":999,"REV_AT_EPOCH":1610,"BSTAR":0.0014206979,"MEAN_MOTION_DOT":0.00039027,"MEAN_MOTION_DDOT":0},{"OBJECT_NAME":"JD 1","OBJECT_ID":"1984-012C","EPOCH":"2026-03-09T23:30:21.347136","MEAN_MOTION":13.74166667,"ECCENTRICITY":0.07563161,"INCLINATION":63.3111,"RA_OF_ASC_NODE":313.7014,"ARG_OF_PERICENTER":126.7081,"MEAN_ANOMALY":240.5908,"EPHEMERIS_TYPE":0,"CLASSIFICATION_TYPE":"U","NORAD_CAT_ID":14728,"ELEMENT_SET_NO":999,"REV_AT_EPOCH":33001,"BSTAR":0.00047185243,"MEAN_MOTION_DOT":3.937e-5,"MEAN_MOTION_DDOT":0}]
